{"type": "FeatureCollection", "features": [ {"type": "Feature", "properties": {"norad_id": 58662, "name": "TIANMU-1 21", "group": "weather", "lat": -29.903543928370375, "lon": -73.39441377663537, "alt_km": 472.2316120052101, "timestamp": "2025-12-23T11:34:47.829110+00:00", "meta": {"OBJECT_NAME": "TIANMU-1 21", "OBJECT_ID": "2023-208C", "EPOCH": "2025-12-23T04:23:38.721984", "MEAN_MOTION": 15.31765018, "ECCENTRICITY": 0.0006351, "INCLINATION": 97.438, "RA_OF_ASC_NODE": 110.614, "ARG_OF_PERICENTER": 216.6536, "MEAN_ANOMALY": 143.4272, "EPHEMERIS_TYPE": 0, "CLASSIFICATION_TYPE": "U", "NORAD_CAT_ID": 58662, "ELEMENT_SET_NO": 999, "REV_AT_EPOCH": 11059, "BSTAR": 0.00039655, "MEAN_MOTION_DOT": 0.00012097, "MEAN_MOTION_DDOT": 0}, "tle": {"line1": "1 58662U 23208C   25357.18308706  .00012097  00000+0  39655-3 0  9996", "line2": "2 58662  97.4380 110.6140 0006351 216.6536 143.4272 15.31765018110593"}}, "geometry": {"type": "Point", "coordinates": [-73.39441377663537, -29.903543928370375]}}, {"type": "Feature", "properties": {"norad_id": 58663, "name": "TIANMU-1 22", "group": "weather", "lat": -20.87747156578991, "lon": 111.41015461501921, "alt_km": 488.4111151793795, "timestamp": "2025-12-23T11:34:47.829126+00:00", "meta": {"OBJECT_NAME": "TIANMU-1 22", "OBJECT_ID": "2023-208D", "EPOCH": "2025-12-23T05:23:03.402816", "MEAN_MOTION": 15.27773269, "ECCENTRICITY": 0.0002876, "INCLINATION": 97.4388, "RA_OF_ASC_NODE": 108.2961, "ARG_OF_PERICENTER": 232.3779, "MEAN_ANOMALY": 127.72, "EPHEMERIS_TYPE": 0, "CLASSIFICATION_TYPE": "U", "NORAD_CAT_ID": 58663, "ELEMENT_SET_NO": 999, "REV_AT_EPOCH": 11043, "BSTAR": 0.00034978, "MEAN_MOTION_DOT": 9.418e-05, "MEAN_MOTION_DDOT": 0}, "tle": {"line1": "1 58663U 23208D   25357.22434494  .00009418  00000+0  34978-3 0  9992", "line2": "2 58663  97.4388 108.2961 0002876 232.3779 127.7200 15.27773269110439"}}, "geometry": {"type": "Point", "coordinates": [111.41015461501921, -20.87747156578991]}}, {"type": "Feature", "properties": {"norad_id": 58700, "name": "TIANMU-1 15", "group": "weather", "lat": -15.38306418200029, "lon": -179.021844068103, "alt_km": 497.7277643890502, "timestamp": "2025-12-23T11:34:47.829141+00:00", "meta": {"OBJECT_NAME": "TIANMU-1 15", "OBJECT_ID": "2024-004A", "EPOCH": "2025-12-23T05:20:48.718176", "MEAN_MOTION": 15.24538592, "ECCENTRICITY": 0.0005998, "INCLINATION": 97.4624, "RA_OF_ASC_NODE": 178.6528, "ARG_OF_PERICENTER": 245.5194, "MEAN_ANOMALY": 114.5418, "EPHEMERIS_TYPE": 0, "CLASSIFICATION_TYPE": "U", "NORAD_CAT_ID": 58700, "ELEMENT_SET_NO": 999, "REV_AT_EPOCH": 10894, "BSTAR": 0.00029058, "MEAN_MOTION_DOT": 7.084e-05, "MEAN_MOTION_DDOT": 0}, "tle": {"line1": "1 58700U 24004A   25357.22278609  .00007084  00000+0  29058-3 0  9993", "line2": "2 58700  97.4624 178.6528 0005998 245.5194 114.5418 15.24538592108942"}}, "geometry": {"type": "Point", "coordinates": [-179.021844068103, -15.38306418200029]}}, {"type": "Feature", "properties": {"norad_id": 58701, "name": "TIANMU-1 16", "group": "weather", "lat": 65.92534146844558, "lon": 161.2459923130605, "alt_km": 488.67320161621956, "timestamp": "2025-12-23T11:34:47.829156+00:00", "meta": {"OBJECT_NAME": "TIANMU-1 16", "OBJECT_ID": "2024-004B", "EPOCH": "2025-12-23T04:59:09.006432", "MEAN_MOTION": 15.24565945, "ECCENTRICITY": 0.0004365, "INCLINATION": 97.4564, "RA_OF_ASC_NODE": 178.0183, "ARG_OF_PERICENTER": 248.2409, "MEAN_ANOMALY": 111.8365, "EPHEMERIS_TYPE": 0, "CLASSIFICATION_TYPE": "U", "NORAD_CAT_ID": 58701, "ELEMENT_SET_NO": 999, "REV_AT_EPOCH": 10894, "BSTAR": 0.0003148, "MEAN_MOTION_DOT": 7.685e-05, "MEAN_MOTION_DDOT": 0}, "tle": {"line1": "1 58701U 24004B   25357.20774313  .00007685  00000+0  31480-3 0  9994", "line2": "2 58701  97.4564 178.0183 0004365 248.2409 111.8365 15.24565945108946"}}, "geometry": {"type": "Point", "coordinates": [161.2459923130605, 65.92534146844558]}}, {"type": "Feature", "properties": {"norad_id": 58702, "name": "TIANMU-1 17", "group": "weather", "lat": 26.417039060944195, "lon": 2.439485703603395, "alt_km": 491.3022294203711, "timestamp": "2025-12-23T11:34:47.829171+00:00", "meta": {"OBJECT_NAME": "TIANMU-1 17", "OBJECT_ID": "2024-004C", "EPOCH": "2025-12-23T04:36:32.229216", "MEAN_MOTION": 15.24609327, "ECCENTRICITY": 0.0003542, "INCLINATION": 97.4598, "RA_OF_ASC_NODE": 178.4181, "ARG_OF_PERICENTER": 249.5514, "MEAN_ANOMALY": 110.5343, "EPHEMERIS_TYPE": 0, "CLASSIFICATION_TYPE": "U", "NORAD_CAT_ID": 58702, "ELEMENT_SET_NO": 999, "REV_AT_EPOCH": 10893, "BSTAR": 0.00032814, "MEAN_MOTION_DOT": 8.024e-05, "MEAN_MOTION_DDOT": 0}, "tle": {"line1": "1 58702U 24004C   25357.19203969  .00008024  00000+0  32814-3 0  9997", "line2": "2 58702  97.4598 178.4181 0003542 249.5514 110.5343 15.24609327108937"}}, "geometry": {"type": "Point", "coordinates": [2.439485703603395, 26.417039060944195]}}, {"type": "Feature", "properties": {"norad_id": 58703, "name": "TIANMU-1 18", "group": "weather", "lat": -63.30151260695809, "lon": -16.200916822586603, "alt_km": 497.21991160392463, "timestamp": "2025-12-23T11:34:47.829186+00:00", "meta": {"OBJECT_NAME": "TIANMU-1 18", "OBJECT_ID": "2024-004D", "EPOCH": "2025-12-23T04:12:39.281760", "MEAN_MOTION": 15.24593311, "ECCENTRICITY": 0.0002911, "INCLINATION": 97.4615, "RA_OF_ASC_NODE": 178.5991, "ARG_OF_PERICENTER": 246.542, "MEAN_ANOMALY": 113.5512, "EPHEMERIS_TYPE": 0, "CLASSIFICATION_TYPE": "U", "NORAD_CAT_ID": 58703, "ELEMENT_SET_NO": 999, "REV_AT_EPOCH": 10893, "BSTAR": 0.00030631, "MEAN_MOTION_DOT": 7.481e-05, "MEAN_MOTION_DDOT": 0}, "tle": {"line1": "1 58703U 24004D   25357.17545465  .00007481  00000+0  30631-3 0  9997", "line2": "2 58703  97.4615 178.5991 0002911 246.5420 113.5512 15.24593311108936"}}, "geometry": {"type": "Point", "coordinates": [-16.200916822586603, -63.30151260695809]}}, {"type": "Feature", "properties": {"norad_id": 58990, "name": "INSAT-3DS", "group": "weather", "lat": -0.0571467544044656, "lon": -11.913736295277017, "alt_km": 35784.783582296244, "timestamp": "2025-12-23T11:34:47.829203+00:00", "meta": {"OBJECT_NAME": "INSAT-3DS", "OBJECT_ID": "2024-033A", "EPOCH": "2025-12-22T22:06:55.502208", "MEAN_MOTION": 1.00271735, "ECCENTRICITY": 0.00011592, "INCLINATION": 0.0565, "RA_OF_ASC_NODE": 100.6756, "ARG_OF_PERICENTER": 173.2771, "MEAN_ANOMALY": 231.6064, "EPHEMERIS_TYPE": 0, "CLASSIFICATION_TYPE": "U", "NORAD_CAT_ID": 58990, "ELEMENT_SET_NO": 999, "REV_AT_EPOCH": 4530, "BSTAR": 0, "MEAN_MOTION_DOT": -1.35e-06, "MEAN_MOTION_DDOT": 0}, "tle": {"line1": "1 58990U 24033A   25356.92147572 -.00000135  00000+0  00000+0 0  9999", "line2": "2 58990   0.0565 100.6756 0001159 173.2771 231.6064  1.00271735 45308"}}, "geometry": {"type": "Point", "coordinates": [-11.913736295277017, -0.0571467544044656]}}, {"type": "Feature", "properties": {"norad_id": 59051, "name": "METEOR-M2 4", "group": "weather", "lat": 73.49435958142114, "lon": -76.80188694096417, "alt_km": 811.7270457532313, "timestamp": "2025-12-23T11:34:47.829281+00:00", "meta": {"OBJECT_NAME": "METEOR-M2 4", "OBJECT_ID": "2024-039A", "EPOCH": "2025-12-23T04:28:17.704992", "MEAN_MOTION": 14.22402732, "ECCENTRICITY": 0.0006491, "INCLINATION": 98.6782, "RA_OF_ASC_NODE": 313.9321, "ARG_OF_PERICENTER": 327.3513, "MEAN_ANOMALY": 32.7263, "EPHEMERIS_TYPE": 0, "CLASSIFICATION_TYPE": "U", "NORAD_CAT_ID": 59051, "ELEMENT_SET_NO": 999, "REV_AT_EPOCH": 9424, "BSTAR": 2.7858e-05, "MEAN_MOTION_DOT": 1.8e-07, "MEAN_MOTION_DDOT": 0}, "tle": {"line1": "1 59051U 24039A   25357.18631603  .00000018  00000+0  27858-4 0  9990", "line2": "2 59051  98.6782 313.9321 0006491 327.3513  32.7263 14.22402732 94247"}}, "geometry": {"type": "Point", "coordinates": [-76.80188694096417, 73.49435958142114]}}, {"type": "Feature", "properties": {"norad_id": 60133, "name": "GOES 19", "group": "weather", "lat": -0.0003131029941489898, "lon": -169.22773426523082, "alt_km": 35788.87498802936, "timestamp": "2025-12-23T11:34:47.829308+00:00", "meta": {"OBJECT_NAME": "GOES 19", "OBJECT_ID": "2024-119A", "EPOCH": "2025-12-22T21:21:59.804064", "MEAN_MOTION": 1.00272021, "ECCENTRICITY": 9.707e-05, "INCLINATION": 0.0098, "RA_OF_ASC_NODE": 264.6523, "ARG_OF_PERICENTER": 59.6972, "MEAN_ANOMALY": 12.6533, "EPHEMERIS_TYPE": 0, "CLASSIFICATION_TYPE": "U", "NORAD_CAT_ID": 60133, "ELEMENT_SET_NO": 999, "REV_AT_EPOCH": 519, "BSTAR": 0, "MEAN_MOTION_DOT": -2.27e-06, "MEAN_MOTION_DDOT": 0}, "tle": {"line1": "1 60133U 24119A   25356.89027551 -.00000227  00000+0  00000+0 0  9998", "line2": "2 60133   0.0098 264.6523 0000970  59.6972  12.6533  1.00272021  5194"}}, "geometry": {"type": "Point", "coordinates": [-169.22773426523082, -0.0003131029941489898]}}, {"type": "Feature", "properties": {"norad_id": 65815, "name": "FENGYUN 3H", "group": "weather", "lat": -37.93905445046636, "lon": 110.01673601656378, "alt_km": 832.2448890026071, "timestamp": "2025-12-23T11:34:47.829319+00:00", "meta": {"OBJECT_NAME": "FENGYUN 3H", "OBJECT_ID": "2025-219A", "EPOCH": "2025-12-23T02:05:55.513248", "MEAN_MOTION": 14.19907283, "ECCENTRICITY": 7.83e-05, "INCLINATION": 98.66, "RA_OF_ASC_NODE": 296.4537, "ARG_OF_PERICENTER": 107.0369, "MEAN_ANOMALY": 253.0893, "EPHEMERIS_TYPE": 0, "CLASSIFICATION_TYPE": "U", "NORAD_CAT_ID": 65815, "ELEMENT_SET_NO": 999, "REV_AT_EPOCH": 1239, "BSTAR": 6.0417e-05, "MEAN_MOTION_DOT": 8.5e-07, "MEAN_MOTION_DDOT": 0}, "tle": {"line1": "1 65815U 25219A   25357.08744807  .00000085  00000+0  60417-4 0  9998", "line2": "2 65815  98.6600 296.4537 0000783 107.0369 253.0893 14.19907283 12395"}}, "geometry": {"type": "Point", "coordinates": [110.01673601656378, -37.93905445046636]}}]}